CUTE-1 (CO-55)          
1 27844U 03031E   18320.98426696  .00000059  00000-0  46449-4 0  9991
2 27844  98.6869 327.3875 0008820 291.9394  68.0846 14.22144385797912
CUBESAT XI-IV (CO-57)   
1 27848U 03031J   18320.91594186  .00000046  00000-0  41035-4 0  9990
2 27848  98.6952 327.7662 0008806 304.2508  55.7835 14.21744531797735
CUBESAT XI 5            
1 28895U 05043F   18320.93925239  .00000153  00000-0  38172-4 0  9994
2 28895  97.9298 106.4097 0015728 309.5678  50.4135 14.63602408695985
CUTE-1.7+APD II (CO-65) 
1 32785U 08021C   18321.55291423  .00000240  00000-0  31608-4 0  9990
2 32785  97.5468 326.4084 0011670 247.4429 112.5554 14.88207001571984
AAUSAT-II               
1 32788U 08021F   18321.01718691  .00000758  00000-0  75112-4 0  9997
2 32788  97.5114 341.0817 0011586 189.0973 171.0040 14.94514394573001
DELFI-C3 (DO-64)        
1 32789U 08021G   18320.77089423  .00001501  00000-0  10568-3 0  9994
2 32789  97.4943  11.5981 0013530 133.1714 227.0647 15.06453202574657
SEEDS II (CO-66)        
1 32791U 08021J   18320.78564151  .00000445  00000-0  50698-4 0  9999
2 32791  97.5318 331.3510 0012300 226.1166 133.9038 14.90672478572169
SWISSCUBE               
1 35932U 09051B   18320.97840761  .00000149  00000-0  44792-4 0  9997
2 35932  98.5641 116.0025 0008738 100.5994 259.6187 14.56216407485670
BEESAT                  
1 35933U 09051C   18321.40732706  .00000115  00000-0  37055-4 0  9993
2 35933  98.5677 118.0853 0006915 110.3621 249.8319 14.56313777485847
ITUPSAT 1               
1 35935U 09051E   18320.93028904  .00000087  00000-0  31233-4 0  9990
2 35935  98.5788 117.8443 0009240 108.8258 251.3941 14.55483673485511
TISAT 1                 
1 36799U 10035E   18320.93928665  .00000518  00000-0  58528-4 0  9991
2 36799  98.1277 101.4235 0013487  69.8732 290.3935 14.90934618452719
M-CUBED & EXP-1 PRIME   
1 37855U 11061F   18321.08318499  .00000871  00000-0  52102-4 0  9994
2 37855 101.7220 101.8799 0175164 349.5969  10.1636 15.04874732384640
STRAND-1                
1 39090U 13009E   18320.80635750  .00000024  00000-0  23781-4 0  9993
2 39090  98.5051 165.0973 0008681 198.0080 162.0799 14.35058462299711
AIST-2 (RS-43)          
1 39133U 13015D   18321.46818787  .00000180  00000-0  25024-4 0  9999
2 39133  64.8753  87.1719 0006344 219.4737 206.4567 15.04638257306276
SOMP                    
1 39134U 13015E   18321.23441726  .00001266  00000-0  68574-4 0  9993
2 39134  64.8637 351.6802 0008702 326.5153  33.5423 15.19583447308157
BEESAT-3                
1 39135U 13015F   18321.51145242  .00000858  00000-0  53043-4 0  9990
2 39135  64.8704   6.1613 0009578 257.4085 102.5970 15.17017774307902
BEESAT-2                
1 39136U 13015G   18321.20614420  .00000925  00000-0  57247-4 0  9991
2 39136  64.8703  10.3518 0011047 246.5978 113.3986 15.16465670307792
NEE-01 PEGASUS          
1 39151U 13018B   18321.50959346  .00000161  00000-0  28254-4 0  9991
2 39151  97.9755  54.5017 0017430 168.0434 192.1195 14.79965307300198
ESTCUBE 1               
1 39161U 13021C   18321.23473450  .00000201  00000-0  39781-4 0  9995
2 39161  98.0020  44.7251 0008179 292.6212  67.4131 14.72127166296964
POPACS 1                
1 39268U 13055D   18321.33231280  .00003608  00000-0  99400-4 0  9992
2 39268  81.0030 185.5012 0633276 134.4305 231.0545 14.35496245266413
POPACS 2                
1 39269U 13055E   18321.38988123  .00001937  00000-0  55989-4 0  9990
2 39269  81.0167 210.5715 0687800 199.4059 157.9729 14.22982423264921
POPACS 3                
1 39270U 13055F   18321.41587700  .00000796  00000-0  24928-4 0  9993
2 39270  81.0190 224.6364 0715748 240.6681 112.1181 14.15249258264028
ZACUBE-1 (TSHEPISOSAT)  
1 39417U 13066B   18321.55133245  .00000243  00000-0  36911-4 0  9996
2 39417  97.5761 341.9092 0059315  14.1826 346.1035 14.81011546269497
WNISAT-1                
1 39423U 13066H   18321.43225057  .00000047  00000-0  19445-4 0  9998
2 39423  97.7487 273.8429 0174356 258.8195  99.3366 14.52995077264483
GOMX 1                  
1 39430U 13066Q   18321.50168610  .00000156  00000-0  37343-4 0  9993
2 39430  97.7162 287.4879 0150475 206.2410 153.1098 14.59155046265511
CUBEBUG-2 (LO-74)       
1 39440U 13066AA  18321.51638746  .00000260  00000-0  43041-4 0  9995
2 39440  97.5996 327.6290 0081625  58.1165 302.7954 14.75751140268533
NEE-02 KRYSAOR          
1 39441U 13066AB  18321.01788914  .00000181  00000-0  32569-4 0  9999
2 39441  97.6013 325.1677 0083225  65.4282 295.5573 14.74833217268302
FUNCUBE-1 (AO-73)       
1 39444U 13066AE  18321.53299141  .00000289  00000-0  42038-4 0  9999
2 39444  97.5761 343.6068 0058290   9.0352 351.1897 14.81810660268368
UWE-3                   
1 39446U 13066AG  18321.54716116  .00000249  00000-0  39682-4 0  9995
2 39446  97.5863 334.3345 0070977  36.5890 324.0140 14.78285868267772
BRITE-TORONTO           
1 40020U 14033L   18321.53298647  .00000047  00000-0  16171-4 0  9997
2 40020  97.7651 171.9087 0088744 115.8604 245.1785 14.66531680236061
DUCHIFAT-1              
1 40021U 14033M   18321.20125061  .00000534  00000-0  60585-4 0  9990
2 40021  97.9163 240.1864 0013935  38.6194 321.6017 14.90445121239747
NANOSATC-BR1            
1 40024U 14033Q   18320.78159212  .00000420  00000-0  49745-4 0  9999
2 40024  97.9083 237.6923 0013311  42.7828 317.4423 14.89687647239592
QB50P1                  
1 40025U 14033R   18321.18694048  .00000329  00000-0  41076-4 0  9993
2 40025  97.9028 236.2355 0013563  46.1775 314.0560 14.88814008239557
QB50P2                  
1 40032U 14033Y   18321.18960946  .00000295  00000-0  37841-4 0  9991
2 40032  97.8971 234.7292 0012888  42.6573 317.5642 14.88354455239486
PERSEUS-M2              
1 40037U 14033AD  18321.29979798  .00000086  00000-0  15998-4 0  9990
2 40037  97.8935 231.8732 0015555  51.3938 308.8667 14.86401562239271
PERSEUS-M1              
1 40039U 14033AF  18321.49842894  .00000085  00000-0  15936-4 0  9991
2 40039  97.8928 231.3322 0015353  48.0218 312.2302 14.86022915239248
POLYITAN-1              
1 40042U 14033AJ  18321.20846357  .00000332  00000-0  41686-4 0  9998
2 40042  97.9105 236.4564 0015641  35.3993 324.8258 14.88505625239473
TIGRISAT                
1 40043U 14033AK  18321.57085949  .00000153  00000-0  29912-4 0  9990
2 40043  97.7844 193.0888 0061350  64.9343 295.8218 14.74196107237202
AEROCUBE 6A             
1 40045U 14033AM  18321.19448269  .00000417  00000-0  67340-4 0  9998
2 40045  97.8037 195.6023 0059237  59.6792 301.0259 14.75252363237087
AEROCUBE 6B             
1 40046U 14033AN  18321.19688856  .00000345  00000-0  56958-4 0  9990
2 40046  97.7991 195.3801 0058464  59.2143 301.4804 14.75236609237225
UKUBE-1                 
1 40074U 14037F   18321.42608525  .00000278  00000-0  40674-4 0  9999
2 40074  98.4081 106.6440 0004362 171.5022 188.6277 14.83913452236023
BRITE-PL 2              
1 40119U 14049B   18321.23397098  .00000136  00000-0  22659-4 0  9997
2 40119  97.9144  48.6890 0017176 193.8415 166.2331 14.84339690230003
FIREBIRD 4              
1 40378U 15003C   18321.41217919  .00002062  00000-0  85946-4 0  9996
2 40378  99.0864 253.6112 0130948  80.7054 280.8956 15.17832206209564
GRIFEX                  
1 40379U 15003D   18321.48325155  .00001401  00000-0  64105-4 0  9996
2 40379  99.0861 249.0370 0138262  95.3462 266.3556 15.14780315209306
EXOCUBE                 
1 40380U 15003E   18321.32612825  .00001053  00000-0  51469-4 0  9996
2 40380  99.0892 246.2893 0142865 104.4885 257.2240 15.12896214209107
TIANWANG 1C (TW-1C)     
1 40926U 15051B   18321.58475872  .00007539  00000-0  12847-3 0  9993
2 40926  97.1689   3.3131 0011157  84.2171  74.0079 15.51590981177075
TIANWANG 1A (TW-1A)     
1 40928U 15051D   18321.38937382  .00002696  00000-0  70552-4 0  9999
2 40928  97.1714 352.2948 0013115 121.9799   3.5512 15.39513453176342
EXACTVIEW 9             
1 40936U 15052G   18321.49754775  .00000772  00000-0  19029-4 0  9999
2 40936   6.0022 140.9966 0010433   2.6453 357.3729 14.76434027169662
ATHENOXAT 1             
1 41168U 15077C   18321.39802083  .00001842  00000-0  63272-4 0  9997
2 41168  14.9857 338.6439 0011949  10.2188 204.1859 15.13142379161616
GALASSIA                
1 41170U 15077E   18321.20240054  .00001870  00000-0  63994-4 0  9996
2 41170  14.9898 334.0243 0013062  28.6289 331.4748 15.13494272161646
VELOX 2                 
1 41171U 15077F   18321.41669194  .00001513  00000-0  49344-4 0  9997
2 41171  14.9925 358.6783 0008968 322.4339  37.5355 15.10895233161444
HORYU-IV                
1 41340U 16012D   18320.60066885  .00000520  00000-0  32945-4 0  9999
2 41340  31.0058  57.0107 0013880 165.3210 194.7831 15.01107237150814
E-ST@R-II               
1 41459U 16025D   18321.46857910  .00001075  00000-0  60027-4 0  9994
2 41459  98.1217  32.1942 0168597 354.9715   4.9804 15.04842847140478
AAUSAT 4                
1 41460U 16025E   18321.42499578  .00000928  00000-0  51673-4 0  9997
2 41460  98.1162  32.9150 0159708 349.7809  10.0175 15.06453484140553
DIWATA-1                
1 41463U 98067HT  18321.27644900  .00012378  00000-0  89036-4 0  9996
2 41463  51.6376 268.7250 0001604  59.2068  87.4788 15.74061293146088
BEESAT-4                
1 41619U 16040W   18321.09046525  .00001355  00000-0  61308-4 0  9994
2 41619  97.3977  22.0066 0012864  58.8804 301.3693 15.22548734121353
CANX-7                  
1 41788U 16059F   18321.50264256  .00007208  00000-0  11701-2 0  9993
2 41788  98.2220  29.1529 0025322 322.4598  37.4827 14.71247509114634
ALSAT 1N                
1 41789U 16059G   18321.44638402  .00000098  00000-0  27754-4 0  9992
2 41789  98.1012  21.9194 0027618 327.9367  32.0161 14.64195266114440
RAVAN                   
1 41849U 16067B   18321.25828609  .00000687  00000-0  63369-4 0  9993
2 41849  97.9228  52.2783 0008189  21.8725 338.2845 14.97983639110041
